{
  "type": "FeatureCollection",
  "features": [
    {
      "type": "Feature",
      "properties": {
        "norad_id": 27954,
        "name": "GALAXY 13 (HORIZONS-1)",
        "group": "intelsat",
        "lat": 0.933292553425235,
        "lon": 160.5675419444193,
        "alt_km": 35789.00951296555,
        "timestamp": "2025-12-21T14:40:47.578191+00:00",
        "meta_object_name": "GALAXY 13 (HORIZONS-1)",
        "meta_object_id": "2003-044A",
        "meta_epoch": "2025-12-21T06:02:32.059680",
        "meta_mean_motion": 1.00270142,
        "meta_eccentricity": 0.00023729,
        "meta_inclination": 0.9585,
        "meta_ra_of_asc_node": 86.3613,
        "meta_arg_of_pericenter": 179.3273,
        "meta_mean_anomaly": 124.9967,
        "meta_ephemeris_type": 0,
        "meta_classification_type": "U",
        "meta_norad_cat_id": 27954,
        "meta_element_set_no": 999,
        "meta_rev_at_epoch": 4478,
        "meta_bstar": 0,
        "meta_mean_motion_dot": 1.55e-06,
        "meta_mean_motion_ddot": 0,
        "tle_line1": "1 27954U 03044A   25355.25175995  .00000155  00000+0  00000+0 0  9990",
        "tle_line2": "2 27954   0.9585  86.3613 0002372 179.3273 124.9967  1.00270142 44787"
      },
      "geometry": {
        "type": "Point",
        "coordinates": [
          160.5675419444193,
          0.933292553425235
        ]
      }
    },
    {
      "type": "Feature",
      "properties": {
        "norad_id": 28358,
        "name": "INTELSAT 10-02",
        "group": "intelsat",
        "lat": -0.030408400653244065,
        "lon": -50.3406102914846,
        "alt_km": 35781.612971270486,
        "timestamp": "2025-12-21T14:40:47.578204+00:00",
        "meta_object_name": "INTELSAT 10-02",
        "meta_object_id": "2004-022A",
        "meta_epoch": "2025-12-21T02:55:15.708576",
        "meta_mean_motion": 1.00272896,
        "meta_eccentricity": 9.822e-05,
        "meta_inclination": 0.0211,
        "meta_ra_of_asc_node": 73.8593,
        "meta_arg_of_pericenter": 233.9977,
        "meta_mean_anomaly": 184.9424,
        "meta_ephemeris_type": 0,
        "meta_classification_type": "U",
        "meta_norad_cat_id": 28358,
        "meta_element_set_no": 999,
        "meta_rev_at_epoch": 7877,
        "meta_bstar": 0,
        "meta_mean_motion_dot": 1.3e-07,
        "meta_mean_motion_ddot": 0,
        "tle_line1": "1 28358U 04022A   25355.12170959  .00000013  00000+0  00000+0 0  9990",
        "tle_line2": "2 28358   0.0211  73.8593 0000982 233.9977 184.9424  1.00272896 78772"
      },
      "geometry": {
        "type": "Point",
        "coordinates": [
          -50.3406102914846,
          -0.030408400653244065
        ]
      }
    },
    {
      "type": "Feature",
      "properties": {
        "norad_id": 28626,
        "name": "XM-3 (RHYTHM)",
        "group": "intelsat",
        "lat": -0.15798571018045235,
        "lon": 22.758380096912312,
        "alt_km": 36153.140011792246,
        "timestamp": "2025-12-21T14:40:47.578216+00:00",
        "meta_object_name": "XM-3 (RHYTHM)",
        "meta_object_id": "2005-008A",
        "meta_epoch": "2025-12-21T04:59:11.340096",
        "meta_mean_motion": 0.98949881,
        "meta_eccentricity": 0.00019677,
        "meta_inclination": 0.1954,
        "meta_ra_of_asc_node": 82.002,
        "meta_arg_of_pericenter": 277.7802,
        "meta_mean_anomaly": 239.0985,
        "meta_ephemeris_type": 0,
        "meta_classification_type": "U",
        "meta_norad_cat_id": 28626,
        "meta_element_set_no": 999,
        "meta_rev_at_epoch": 4083,
        "meta_bstar": 0,
        "meta_mean_motion_dot": 8.3e-07,
        "meta_mean_motion_ddot": 0,
        "tle_line1": "1 28626U 05008A   25355.20777014  .00000083  00000+0  00000+0 0  9994",
        "tle_line2": "2 28626   0.1954  82.0020 0001967 277.7802 239.0985  0.98949881 40830"
      },
      "geometry": {
        "type": "Point",
        "coordinates": [
          22.758380096912312,
          -0.15798571018045235
        ]
      }
    },
    {
      "type": "Feature",
      "properties": {
        "norad_id": 28659,
        "name": "DIRECTV 8",
        "group": "intelsat",
        "lat": 0.0008766510389236258,
        "lon": -168.4654556772822,
        "alt_km": 35786.659225661664,
        "timestamp": "2025-12-21T14:40:47.578228+00:00",
        "meta_object_name": "DIRECTV 8",
        "meta_object_id": "2005-019A",
        "meta_epoch": "2025-12-21T07:16:13.721376",
        "meta_mean_motion": 1.00270161,
        "meta_eccentricity": 0.000292,
        "meta_inclination": 0.0247,
        "meta_ra_of_asc_node": 18.4369,
        "meta_arg_of_pericenter": 263.851,
        "meta_mean_anomaly": 157.8449,
        "meta_ephemeris_type": 0,
        "meta_classification_type": "U",
        "meta_norad_cat_id": 28659,
        "meta_element_set_no": 999,
        "meta_rev_at_epoch": 7528,
        "meta_bstar": 0,
        "meta_mean_motion_dot": 0,
        "meta_mean_motion_ddot": 0,
        "tle_line1": "1 28659U 05019A   25355.30293659  .00000000  00000+0  00000+0 0  9990",
        "tle_line2": "2 28659   0.0247  18.4369 0002920 263.8510 157.8449  1.00270161 75282"
      },
      "geometry": {
        "type": "Point",
        "coordinates": [
          -168.4654556772822,
          0.0008766510389236258
        ]
      }
    },
    {
      "type": "Feature",
      "properties": {
        "norad_id": 28702,
        "name": "GALAXY 28 (G-28)",
        "group": "intelsat",
        "lat": 1.783550068483837,
        "lon": -138.0563154908348,
        "alt_km": 35778.71009757054,
        "timestamp": "2025-12-21T14:40:47.578240+00:00",
        "meta_object_name": "GALAXY 28 (G-28)",
        "meta_object_id": "2005-022A",
        "meta_epoch": "2025-12-20T00:49:30.482112",
        "meta_mean_motion": 1.00271047,
        "meta_eccentricity": 0.00029384,
        "meta_inclination": 2.8382,
        "meta_ra_of_asc_node": 81.1982,
        "meta_arg_of_pericenter": 194.0723,
        "meta_mean_anomaly": 97.2981,
        "meta_ephemeris_type": 0,
        "meta_classification_type": "U",
        "meta_norad_cat_id": 28702,
        "meta_element_set_no": 999,
        "meta_rev_at_epoch": 5017,
        "meta_bstar": 0,
        "meta_mean_motion_dot": -1.65e-06,
        "meta_mean_motion_ddot": 0,
        "tle_line1": "1 28702U 05022A   25354.03438058 -.00000165  00000+0  00000+0 0  9999",
        "tle_line2": "2 28702   2.8382  81.1982 0002938 194.0723  97.2981  1.00271047 50172"
      },
      "geometry": {
        "type": "Point",
        "coordinates": [
          -138.0563154908348,
          1.783550068483837
        ]
      }
    },
    {
      "type": "Feature",
      "properties": {
        "norad_id": 29236,
        "name": "GALAXY 16 (G-16)",
        "group": "intelsat",
        "lat": 0.0020005495147653093,
        "lon": -148.41307450004254,
        "alt_km": 35780.95240143727,
        "timestamp": "2025-12-21T14:40:47.578252+00:00",
        "meta_object_name": "GALAXY 16 (G-16)",
        "meta_object_id": "2006-023A",
        "meta_epoch": "2025-12-21T06:30:21.606624",
        "meta_mean_motion": 1.0027104,
        "meta_eccentricity": 0.00024736,
        "meta_inclination": 0.004,
        "meta_ra_of_asc_node": 251.1505,
        "meta_arg_of_pericenter": 19.7652,
        "meta_mean_anomaly": 177.761,
        "meta_ephemeris_type": 0,
        "meta_classification_type": "U",
        "meta_norad_cat_id": 29236,
        "meta_element_set_no": 999,
        "meta_rev_at_epoch": 7119,
        "meta_bstar": 0,
        "meta_mean_motion_dot": -1.04e-06,
        "meta_mean_motion_ddot": 0,
        "tle_line1": "1 29236U 06023A   25355.27108341 -.00000104  00000+0  00000+0 0  9993",
        "tle_line2": "2 29236   0.0040 251.1505 0002473  19.7652 177.7610  1.00271040 71195"
      },
      "geometry": {
        "type": "Point",
        "coordinates": [
          -148.41307450004254,
          0.0020005495147653093
        ]
      }
    },
    {
      "type": "Feature",
      "properties": {
        "norad_id": 29494,
        "name": "DIRECTV 9S",
        "group": "intelsat",
        "lat": 1.5708064133363304,
        "lon": -150.60345054247273,
        "alt_km": 35781.216419200784,
        "timestamp": "2025-12-21T14:40:47.578264+00:00",
        "meta_object_name": "DIRECTV 9S",
        "meta_object_id": "2006-043A",
        "meta_epoch": "2025-12-21T06:30:12.449952",
        "meta_mean_motion": 1.00271539,
        "meta_eccentricity": 0.0002841,
        "meta_inclination": 1.9608,
        "meta_ra_of_asc_node": 83.1232,
        "meta_arg_of_pericenter": 193.151,
        "meta_mean_anomaly": 170.1593,
        "meta_ephemeris_type": 0,
        "meta_classification_type": "U",
        "meta_norad_cat_id": 29494,
        "meta_element_set_no": 999,
        "meta_rev_at_epoch": 4960,
        "meta_bstar": 0,
        "meta_mean_motion_dot": -9.2e-07,
        "meta_mean_motion_ddot": 0,
        "tle_line1": "1 29494U 06043A   25355.27097743 -.00000092  00000+0  00000+0 0  9990",
        "tle_line2": "2 29494   1.9608  83.1232 0002841 193.1510 170.1593  1.00271539 49601"
      },
      "geometry": {
        "type": "Point",
        "coordinates": [
          -150.60345054247273,
          1.5708064133363304
        ]
      }
    }
  ]
}